IRIDIUM 39              
1 25042U 97069D   25111.37103007  .00001437  00000+0  37190-3 0  9992
2 25042  86.3924 235.4722 0019559 132.6849 227.6007 14.49130287440735
IRIDIUM 38              
1 25043U 97069E   25111.46062576  .00000959  00000+0  31048-3 0  9992
2 25043  86.3929 257.0164 0000424  36.8253 323.2974 14.38053154437801
IRIDIUM 42              
1 25077U 97077A   25111.46691086  .00000913  00000+0  30582-3 0  9994
2 25077  86.3924 263.1183 0001521  79.7407 280.3961 14.36293447433059
IRIDIUM 44              
1 25078U 97077B   25111.43545939  .00000879  00000+0  27193-3 0  9992
2 25078  86.3952 245.1936 0001994 148.4811 211.6508 14.40183373435534
IRIDIUM 45              
1 25104U 97082A   25111.41987213  .00022313  00000+0  84604-3 0  9998
2 25104  86.3572  75.4069 0121873 182.3490 177.7199 15.19966225443418
IRIDIUM 24              
1 25105U 97082B   25111.48134377  .00001066  00000+0  31876-3 0  9996
2 25105  86.3857 104.3587 0009061 265.1098  94.9067 14.42027322435045
IRIDIUM 51              
1 25262U 98018A   25111.41506870  .00042386  00000+0  10549-2 0  9997
2 25262  86.3822  83.8506 0099341 107.2750 253.9401 15.35046582438307
IRIDIUM 57              
1 25273U 98019B   25111.51555439  .00000605  00000+0  20210-3 0  9991
2 25273  86.4007 168.9957 0002208  93.1221 267.0229 14.35848998416650
